43585,1 43585U 18063A   25108.20680517  .00016031  00000-0  37454-3 0  9995,2 43585  97.1836 173.9585 0008173  96.3249 263.8930 15.42223104374583
43587,1 43587U 18064A   25108.41232927 -.00000335  00000-0  00000+0 0  9993,2 43587   0.0126 217.9603 0001754 201.7288  43.5236  1.00272605 24609
43601,1 43601U 16049F   25108.54288553  .00023158  00000-0  24189-2 0  9995,2 43601  98.2992 221.8785 0084362 146.0634 214.6018 14.87061806569244
43601,1 43601U 16049F   25108.54288553  .00023158  00000-0  24189-2 0  9995,2 43601  98.2992 221.8785 0084362 146.0634 214.6018 14.87061806569244
43609,1 43609U 18068A   25108.49812656  .00000334  00000-0  13489-3 0  9990,2 43609  98.5644 180.7949 0009054 273.8532  86.1618 14.34141205346217
43609,1 43609U 18068A   25108.84696720  .00000312  00000-0  12701-3 0  9993,2 43609  98.5644 181.1405 0009056 272.6869  87.3279 14.34141397346264
43609,1 43609U 18068A   25108.14928586  .00000348  00000-0  14013-3 0  9991,2 43609  98.5644 180.4493 0009051 275.0377  84.9775 14.34141029346164
43611,1 43611U 18069A   25108.41823713 -.00000285  00000-0  00000+0 0  9999,2 43611   0.0134 262.0378 0002143 136.5406  96.7681  1.00270288 24357
43611,1 43611U 18069A   25108.98923907 -.00000286  00000-0  00000+0 0  9998,2 43611   0.0138 263.2904 0002056 136.6026 301.5770  1.00270869 24352
43612,1 43612U 18069B   25108.41189417  .00016327  00000-0  14228-2 0  9999,2 43612  27.0248 200.0296 5427249 256.4628  40.2751  4.96863118112162
43613,1 43613U 18070A   25108.85179044  .00016100  00000-0  58621-3 0  9990,2 43613  91.9933 176.8434 0006378  64.1557 296.0350 15.28148619367655
43618,1 43618U 18071A   25108.80803506  .00002140  00000-0  19713-3 0  9996,2 43618  97.5618 351.4505 0004086 122.6431 237.5186 14.95725989359480
43618,1 43618U 18071A   25108.54043956  .00002171  00000-0  19984-3 0  9996,2 43618  97.5617 351.1922 0004053 123.2964 236.8646 14.95724795359444
43618,1 43618U 18071A   25108.20594488  .00002069  00000-0  19075-3 0  9997,2 43618  97.5618 350.8694 0004012 124.2020 235.9582 14.95723012359390
43619,1 43619U 18071B   25108.17387379  .00000683  00000-0  65460-4 0  9993,2 43619  97.5665 351.3331 0003120 109.6391 250.5168 14.96216895359383
43619,1 43619U 18071B   25108.84264167  .00000557  00000-0  54327-4 0  9996,2 43619  97.5664 351.9795 0003107 108.5479 251.6080 14.96217914359481
43619,1 43619U 18071B   25108.50825768  .00000636  00000-0  61269-4 0  9990,2 43619  97.5664 351.6563 0003109 109.0749 251.0810 14.96217542359436
43620,1 43620U 18071C   25108.53007113  .00004087  00000-0  34678-3 0  9998,2 43620  97.4405 298.8959 0028616 123.4802 236.9162 14.98130723358798
43623,1 43623U 18072B   25108.67011058  .00000016  00000-0  00000+0 0  9996,2 43623  56.2541  76.7026 0006772 330.9679  28.9733  1.86231322 44749
43625,1 43625U 18072D   25108.76798271  .00000024  00000-0  00000+0 0  9996,2 43625  56.0550  84.4200 0103352  58.2079 302.7735  1.77481879 42652
43625,1 43625U 18072D   25108.76798271  .00000024  00000-0  00000-0 0  9997,2 43625  56.0550  84.4200 0103352  58.2079 302.7735  1.77481879 42652
43628,1 43628U 13065E   25108.64063567  .00012217  00000-0  35597-2 0  9995,2 43628 100.5234 355.3970 0153948 266.4581  91.8981 14.37656491342869
43628,1 43628U 13065E   25108.64063567  .00012217  00000-0  35597-2 0  9995,2 43628 100.5234 355.3970 0153948 266.4581  91.8981 14.37656491342869
43632,1 43632U 18074A   25108.89071637  .00000144  00000-0  00000+0 0  9993,2 43632   0.0178 240.9863 0001555 153.7993 178.2228  1.00271838 24186
43633,1 43633U 18074B   25108.78142260 -.00000022  00000-0  00000+0 0  9999,2 43633   0.0170 210.7123 0000744  96.8473 349.9074  1.00271458 24063
43636,1 43636U 18075A   25108.85925891  .00000926  00000-0  20487-3 0  9997,2 43636  97.9166 147.9703 0009057  23.8479 336.3139 14.59351522348658
43636,1 43636U 18075A   25108.10504947  .00000984  00000-0  21718-3 0  9992,2 43636  97.9168 147.2507 0009116  26.0109 334.1548 14.59350237348546
43636,1 43636U 18075A   25108.51643656  .00000935  00000-0  20680-3 0  9991,2 43636  97.9167 147.6432 0009081  24.8174 335.3461 14.59350854348604
43641,1 43641U 18076A   25108.49466746  .00000864  00000-0  11517-3 0  9998,2 43641  97.8900 296.3341 0001315  90.4497 269.6867 14.82144715353196
43641,1 43641U 18076A   25108.83222212  .00000857  00000-0  11424-3 0  9993,2 43641  97.8900 296.6669 0001315  90.5130 269.6234 14.82145482353243
43641,1 43641U 18076A   25108.15711255  .00000876  00000-0  11666-3 0  9997,2 43641  97.8900 296.0016 0001326  89.5707 270.5659 14.82143938353148
43642,1 43642U 18077A   25108.21818677  .00001404  00000-0  28615-3 0  9992,2 43642  97.9472 144.2229 0001731  93.0452 267.0948 14.62451823347712
43642,1 43642U 18077A   25108.65178091  .00001918  00000-0  38763-3 0  9994,2 43642  97.9460 144.6383 0001801  91.2704  30.3079 14.62455583347771
43642,1 43642U 18077A   25108.56028260  .00001414  00000-0  28805-3 0  9993,2 43642  97.9471 144.5521 0001732  92.8225 267.3176 14.62453076347768
43642,1 43642U 18077A   25108.83395935  .00001373  00000-0  27992-3 0  9999,2 43642  97.9471 144.8156 0001728  92.7125 267.4275 14.62453711347800
43643,1 43643U 18077B   25108.83383965  .00001351  00000-0  27558-3 0  9994,2 43643  97.9470 144.7752 0001657  90.9976 269.1415 14.62452255347791
43643,1 43643U 18077B   25108.21806645  .00001382  00000-0  28179-3 0  9995,2 43643  97.9472 144.1824 0001658  91.2410 268.8982 14.62450403347704
43643,1 43643U 18077B   25108.56016262  .00001390  00000-0  28337-3 0  9996,2 43643  97.9471 144.5117 0001657  91.0664 269.0728 14.62451630347759
43643,1 43643U 18077B   25108.65037860  .00001966  00000-0  39704-3 0  9992,2 43643  97.9457 144.5967 0001760  90.8384  23.9923 14.62454501347762
43644,1 43644U 18077C   25108.03714404  .00005448  00000-0  92270-3 0  9997,2 43644  97.9696 155.4643 0006385 353.5165   6.5957 14.69673902348135
43645,1 43645U 18050D   25108.40495865 -.00000198  00000-0  00000+0 0  9991,2 43645   3.8072  81.7106 0053550 258.9590 100.4901  1.00230906 24645
43646,1 43646U 14090D   25108.40102729 -.00000168  00000-0  00000+0 0  9993,2 43646   6.4775  73.4336 0203401 276.4534  81.2176  1.00327896 37439
43646,1 43646U 14090D   25108.40102729 -.00000169  00000-0  00000-0 0  9995,2 43646   6.4775  73.4336 0203401 276.4534  81.2176  1.00327896 37440
43646,1 43646U 14090D   25108.40242435 -.00000166  00000-0  00000+0 0  9990,2 43646   6.4742  73.4411 0184440 280.6740  77.2367  1.00328140 37434
43646,1 43646U 14090D   25108.40242435 -.00000166  00000-0  00000-0 0  9991,2 43646   6.4742  73.4411 0184440 280.6740  77.2367  1.00328140 37445
43648,1 43648U 18078B   25108.95983503 -.00000037  00000-0  00000+0 0  9997,2 43648  54.4650 314.8179 0005090  39.1669 320.8933  1.86232296 44287
43648,1 43648U 18078B   25108.95983491 -.00000037  00000-0  00000-0 0  9994,2 43648  54.4650 314.8179 0005090  39.2208 320.8395  1.86232294 44276
43650,1 43650U 18078D   25108.73777438 -.00000046  00000-0  00000-0 0  9995,2 43650  54.3916 322.2877 0107592  57.1089 303.9552  1.77586246 42226
43651,1 43651U 18079A   25108.16323340 -.00000267  00000-0  00000+0 0  9997,2 43651   1.5246 341.2371 0050991   8.2356 208.2675  1.00275442 24021
43652,1 43652U 18079B   25108.34363265 -.00000088  00000-0  00000+0 0  9999,2 43652  12.8368  67.3420 4693631 254.8065  50.2799  1.84081271 43702
43652,1 43652U 18079B   25108.88674962 -.00000083  00000-0  00000-0 0  9993,2 43652  12.8374  67.2946 4693591 254.9000  50.1952  1.84081250 40238
43655,1 43655U 18081A   25108.81127357  .00000016  00000-0  58752-4 0  9999,2 43655  99.3355 118.8674 0001006  20.4133 339.7059 13.79304222326420
43655,1 43655U 18081A   25108.15842362  .00000021  00000-0  63807-4 0  9999,2 43655  99.3356 118.2241 0001044  21.4716 338.6479 13.79304139326336
43655,1 43655U 18081A   25108.52111802  .00000020  00000-0  62512-4 0  9999,2 43655  99.3356 118.5815 0001017  20.9998 339.1195 13.79304216326384
43656,1 43656U 18081B   25108.22150317  .00000353  00000-0  12181-3 0  9996,2 43656  99.4040 346.7862 0206148  50.4374 311.4819 14.31616510338494
43660,1 43660U 18081D   25108.01925747  .00000261  00000-0  24473-3 0  9990,2 43660  99.1516 138.9169 0014244  72.1116 288.1595 13.90445822328821
43661,1 43661U 18081E   25108.01686452  .00000229  00000-0  22392-3 0  9990,2 43661  99.1691 140.4543 0013793  50.3393 309.8979 13.89317271328565
43662,1 43662U 18083A   25108.13634744  .00006320  00000-0  33006-3 0  9995,2 43662  97.3658 120.1197 0002003  94.4653 265.6808 15.16247418358110
43662,1 43662U 18083A   25108.86228346  .00005807  00000-0  30349-3 0  9998,2 43662  97.3659 120.8244 0001988  94.3625 265.7835 15.16255430358226
43662,1 43662U 18083A   25108.53231307  .00005972  00000-0  31203-3 0  9996,2 43662  97.3659 120.5041 0001991  94.2503 265.8957 15.16251640358175
43672,1 43672U 18084B   25108.30502536  .00005176  00000-0  62429-3 0  9998,2 43672  97.8474 220.7455 0001835 106.9862 253.1553 14.84235405350533
43676,1 43676U 18084F   25108.17853270  .00004415  00000-0  37033-3 0  9999,2 43676  98.0761 268.9981 0013736  81.9881 278.2899 14.98855936352055
43676,1 43676U 18084F   25108.51232549  .00004713  00000-0  39485-3 0  9991,2 43676  98.0761 269.3438 0013747  81.0179 279.2598 14.98859719352106
43676,1 43676U 18084F   25108.84611771  .00004430  00000-0  37151-3 0  9999,2 43676  98.0762 269.6895 0013769  80.0740 280.2035 14.98862549352152
43677,1 43677U 18084G   25108.84588951  .00003878  00000-0  31468-3 0  9993,2 43677  98.0935 279.0438 0009290  94.6703 265.5580 15.00256212352482
43678,1 43678U 18084H   25108.82824441  .00004925  00000-0  42181-3 0  9997,2 43678  98.1013 282.9936 0010191  99.9274 260.3098 14.98020267352639
43678,1 43678U 18084H   25108.16028409  .00004807  00000-0  41191-3 0  9993,2 43678  98.1010 282.3006 0010153 102.0652 258.1707 14.98012992352539
43678,1 43678U 18084H   25108.49426459  .00005005  00000-0  42859-3 0  9999,2 43678  98.1011 282.6471 0010162 100.9388 259.2977 14.98016983352582
